satname,norad_id,inclination_deg,eccentricity,mean_motion_rev_per_day,perigee_km,apogee_km,l1,l2
STARLINK-1513,45786,53.064,0.0001366,15.09025922,538.2302532968315,540.1200629784362,1 45786U 20038BJ  26027.83335647  .01434694  00000+0  81954-1 0  9997,2 45786  53.0640  20.0174 0001366  95.2321 207.0909 15.09025922  5818
STARLINK-1522,46027,53.0576,0.0001981,15.06382077,545.8945674651904,548.6384123278867,1 46027U 20055A   26027.75969808  .00002548  00000+0  18999-3 0  9997,2 46027  53.0576 310.3615 0001981  86.1692 273.9524 15.06382077302711
STARLINK-1523,46028,53.0543,0.0001426,15.06379756,546.2860400253794,548.2611671295199,1 46028U 20055B   26027.77444794 -.00001313  00000+0 -69274-4 0  9996,2 46028  53.0543 310.2961 0001426  80.7563 279.3587 15.06379756302731
STARLINK-1526,46029,53.0543,0.0001383,15.06402713,546.245468440894,548.1610175521073,1 46029U 20055C   26027.10359159  .00002577  00000+0  19182-3 0  9997,2 46029  53.0543 313.3041 0001383  87.8973 272.2175 15.06402713302623
STARLINK-1555,46032,53.054,0.0001218,15.06406806,546.3471936933684,548.0342035207486,1 46032U 20055F   26026.88981176  .00024727  00000+0  16728-2 0  9998,2 46032  53.0540 314.2637 0001218  82.2989 277.8138 15.06406806302591
STARLINK-1556,46033,53.0551,9.77e-05,15.0638148,546.5917075527132,547.944931752173,1 46033U 20055G   26027.80024541 -.00001416  00000+0 -76207-4 0  9998,2 46033  53.0551 310.1778 0000977 357.6962   2.4022 15.06381480302703
STARLINK-1557,46034,53.0559,0.0001694,15.0637474,546.115810121456,548.4621444425593,1 46034U 20055H   26027.80392347  .00009885  00000+0  68201-3 0  9991,2 46034  53.0559 310.1590 0001694 136.8954 223.2167 15.06374740302703
STARLINK-1558,46035,53.054,0.0001483,15.06396475,546.1953307833292,548.2493923699722,1 46035U 20055J   26027.47956001  .00002831  00000+0  20890-3 0  9994,2 46035  53.0540 311.6185 0001483  88.4381 271.6778 15.06396475302683
STARLINK-1560,46036,53.0543,0.0001839,15.06401761,545.9325901249076,548.4797313394247,1 46036U 20055K   26027.79654875  .00018910  00000+0  12849-2 0  9993,2 46036  53.0543 310.1943 0001839  88.3808 271.7391 15.06401761302734
STARLINK-1567,46038,53.0551,0.0001313,15.06384468,546.3498571742521,548.1684662063126,1 46038U 20055M   26027.80763023  .00008139  00000+0  56488-3 0  9993,2 46038  53.0551 310.1466 0001313  85.3295 274.7844 15.06384468302728
STARLINK-1569,46039,53.0483,0.0001302,15.06399844,546.3103556113556,548.1137165003456,1 46039U 20055N   26027.74864107  .00012920  00000+0  88464-3 0  9994,2 46039  53.0483 310.4050 0001302  43.5752 316.5339 15.06399844302714
STARLINK-1582,46043,53.0498,7.78e-05,15.06400564,546.6710373767228,547.7486213433713,1 46043U 20055S   26027.09253247  .00001896  00000+0  14613-3 0  9999,2 46043  53.0498 313.3528 0000778  70.8772 289.2301 15.06400564302614
STARLINK-1591,46045,53.055,0.0001739,15.06407572,545.9840368675259,548.3926650245849,1 46045U 20055U   26027.05199064  .00003914  00000+0  28148-3 0  9994,2 46045  53.0550 313.5428 0001739  65.2928 294.8242 15.06407572302594
STARLINK-1524,46047,53.0568,0.0001748,15.06409939,545.9705508989709,548.3916421055073,1 46047U 20055W   26027.07134081  .00005588  00000+0  39367-3 0  9990,2 46047  53.0568 303.4501 0001748  85.4862 274.6327 15.06409939302753
STARLINK-1527,46048,53.0548,0.0001525,15.06414936,546.1096729534847,548.2218903018811,1 46048U 20055X   26027.06764842  .00005362  00000+0  37844-3 0  9992,2 46048  53.0548 303.4692 0001525 101.3191 258.7970 15.06414936302737
STARLINK-1540,46051,53.0549,0.0001374,15.06408932,546.2326436494714,548.1357219104993,1 46051U 20055AA  26026.96812921  .00007066  00000+0  49268-3 0  9992,2 46051  53.0549 303.9063 0001374 139.4714 220.6378 15.06408932302755
STARLINK-1541,46052,53.0514,0.000283,15.0639571,545.2648288387536,549.1845835644635,1 46052U 20055AB  26027.74956080  .00001750  00000+0  13638-3 0  9991,2 46052  53.0514 300.4058 0002830  76.5365 283.5939 15.06395710302834
STARLINK-1543,46053,53.0555,0.0001012,15.0640755,546.4875754399836,547.8892613046628,1 46053U 20055AC  26027.75323516  .00001876  00000+0  14479-3 0  9998,2 46053  53.0555 300.3892 0001012  90.5080 269.6025 15.06407550302866
STARLINK-1548,46054,53.0536,5.41e-05,15.06407383,546.8142700662193,547.5635903318662,1 46054U 20055AD  26027.76061635  .00006438  00000+0  45058-3 0  9997,2 46054  53.0536 300.3555 0000541  64.0959 296.0085 15.06407383302863
STARLINK-1554,46055,53.0528,0.0003438,15.06420079,544.7691057014672,549.5309330559921,1 46055U 20055AE  26027.74587195  .00010371  00000+0  71368-3 0  9994,2 46055  53.0528 300.4205 0003438  92.4599 267.6783 15.06420079302867
STARLINK-1564,46058,53.0536,0.0001393,15.0638902,546.2805045193854,548.2099160031639,1 46058U 20055AH  26027.75699228  .00000950  00000+0  82676-4 0  9996,2 46058  53.0536 300.8359 0001393  66.9091 293.2044 15.06389020302858
STARLINK-1570,46059,53.059,0.000205,15.06386278,545.8339091352818,548.6733192871079,1 46059U 20055AJ  26027.78642890 -.00000656  00000+0 -25172-4 0  9996,2 46059  53.0590 300.2418 0002050 101.6590 258.4629 15.06386278302822
STARLINK-1572,46060,53.0538,0.0001662,15.06376692,546.1319897193152,548.4339993254944,1 46060U 20055AK  26027.78274135 -.00012328  00000+0 -81062-3 0  9999,2 46060  53.0538 300.2550 0001662 120.9799 239.1353 15.06376692302836
STARLINK-1573,46061,53.0527,0.0001444,15.06388165,546.2478051766439,548.2478563157638,1 46061U 20055AL  26027.77905630 -.00000677  00000+0 -26590-4 0  9990,2 46061  53.0527 300.3126 0001444  76.4429 283.6721 15.06388165302862
STARLINK-1577,46063,53.0541,9.53e-05,15.06407609,546.5282540521976,547.8482210424736,1 46063U 20055AN  26027.07502237  .00003512  00000+0  25450-3 0  9993,2 46063  53.0541 303.4321 0000953 103.0586 257.0510 15.06407609302750
STARLINK-1583,46064,53.0554,0.0001535,15.06413127,546.1082910380474,548.2343606940885,1 46064U 20055AP  26026.77646869  .00011042  00000+0  75874-3 0  9992,2 46064  53.0554 304.7743 0001535  78.4488 281.6673 15.06413127302711
STARLINK-1525,46066,53.0534,0.0001725,15.06406992,545.9955096185222,548.3847474778713,1 46066U 20055AR  26026.70828646  .00002679  00000+0  19864-3 0  9995,2 46066  53.0534 285.0793 0001725  81.9226 278.1959 15.06406992302975
STARLINK-1536,46070,53.0531,0.0001678,15.06406067,546.0308931516138,548.355033887372,1 46070U 20055AV  26027.68136870  .00002855  00000+0  21043-3 0  9997,2 46070  53.0531 280.7101 0001678  92.4569 267.6612 15.06406067303137
